332P-F/Ikeya-Murakami,e,9.5293,3.4757,152.8203,3.163214,0.1751908,0.49918860,359.8501,03/17.0/2016,2000,g 21.0,4.0
# From MPEC 2016-ED0
332P-G/Ikeya-Murakami,e,9.2523,3.6955,154.4000,3.050519,0.1849880,0.49200362,359.9006,03/19.0/2016,2000,g 19.0,4.0
# From MPC100285
332P-H/Ikeya-Murakami,e,9.3828,152.3016,3.7383,3.086890,0.1817282,0.48954054,186.3624,06/09.0/2024,2000,g 19.0,4.0
# From MPEC 2016-ED0
332P-I/Ikeya-Murakami,e,9.3791,3.8048,152.3297,3.081767,0.1821815,0.48955490,359.9360,03/17.0/2016,2000,g 20.5,2.0
# From MPEC 2016-EI8
332P-J/Ikeya-Murakami,e,9.4296,3.6729,152.7712,3.115165,0.1792596,0.49429435,359.8613,03/17.0/2016,2000,g 20.5,2.0
# From MPEC 2024-L77
333P/LINEAR,e,132.0219,115.7046,26.0147,4.220441,0.1136756,0.73628603,340.3000,06/09.0/2024,2000,g 15.0,4.0
# From MPEC 2023-J29
334P/NEAT,e,20.3740,90.4672,90.0365,6.829146,0.0552274,0.35117807,141.5437,06/09.0/2024,2000,g 10.5,4.0
# From MPEC 2023-M14
335P/Gibbs,e,7.2943,330.8135,162.3004,3.577680,0.1456471,0.54653948,97.1278,06/09.0/2024,2000,g 16.8,4.0
# From MPC105244
336P/McNaught,e,17.8272,298.2127,308.6321,5.037887,0.0871629,0.44408348,234.5798,06/09.0/2024,2000,g 13.5,4.0
# From MPEC 2024-A43
337P/WISE,e,15.5753,104.8751,162.4563,3.296407,0.1646807,0.49912599,116.3424,06/09.0/2024,2000,g 17.0,4.0
# From MPEC 2023-J29
338P/McNaught,e,25.3866,9.7933,4.5770,3.891933,0.1283678,0.41216283,352.9412,06/09.0/2024,2000,g 12.0,4.0
# From MPC101101
339P/Gibbs,e,5.7331,27.4746,172.6907,3.699893,0.1384906,0.63564615,39.2030,06/09.0/2024,2000,g 17.0,4.0
# From MPC133426
340P/Boattini,e,2.0786,291.6647,36.0593,4.248651,0.1125454,0.28031425,309.7823,06/09.0/2024,2000,g 14.3,4.0
# From MPEC 2023-J29
341P/Gibbs,e,3.7965,29.9617,312.3366,4.287525,0.1110182,0.41540471,324.7371,06/09.0/2024,2000,g 12.5,4.0
# From MPC101101
342P/SOHO,e,11.6943,73.3210,27.6345,3.041104,0.1858477,0.98292930,0.0000,10/19.4472/2021,2000,g  9.0,4.0
# From MPEC 2023-J29
343P/NEAT-LONEOS,e,5.5968,257.0598,137.5861,5.457450,0.0773071,0.58521475,207.4491,06/09.0/2024,2000,g 14.0,4.0
# From MPEC 2023-J29
344P/Read,e,3.4989,273.1007,140.5624,4.857368,0.0920667,0.42377952,255.0001,06/09.0/2024,2000,g 13.0,4.0
# From MPEC 2022-K19
345P/LINEAR,e,2.7280,154.5950,196.6743,4.031568,0.1217568,0.22122054,349.8945,06/09.0/2024,2000,g 12.0,4.0
# From MPEC 2022-K19
346P/Catalina,e,22.2174,102.4555,336.0205,4.470386,0.1042765,0.50385482,278.3337,06/09.0/2024,2000,g 14.0,4.0
# From MPEC 2023-XP6
347P/PANSTARRS,e,11.7635,260.9875,98.3190,3.605653,0.1439555,0.38683774,46.8243,06/09.0/2024,2000,g 15.0,4.0
# From MPEC 2022-ED3
348P/PANSTARRS,e,17.7381,312.9282,135.7194,3.151889,0.1761359,0.30738857,149.1936,06/09.0/2024,2000,g 14.0,4.0
# From MPEC 2024-L77
349P/Lemmon,e,5.4885,331.7497,255.7895,3.578503,0.1455969,0.29856127,1.8772,06/09.0/2024,2000,g 14.0,4.0
# From MPC111775
350P/McNaught,e,7.3639,65.2933,139.9604,4.081389,0.1195342,0.09443171,282.7862,06/09.0/2024,2000,g 14.0,4.0
# From MPC105244
351P/Wiegert-PANSTARRS,e,12.7753,352.6797,283.3192,4.440630,0.1053264,0.29477079,329.4101,06/09.0/2024,2000,g 12.5,4.0
# From MPEC 2023-J29
352P/Skiff,e,21.0121,28.0135,309.4057,6.652529,0.0574412,0.61676426,146.1783,06/09.0/2024,2000,g 13.2,4.0
# From MPEC 2020-AA5
353P/McNaught,e,28.4166,121.5269,230.4906,4.170638,0.1157178,0.46996442,272.9416,06/09.0/2024,2000,g 14.5,4.0
# From MPEC 2024-EF7
354P/LINEAR,e,5.2509,320.0710,132.8097,2.289835,0.2844446,0.12449291,67.9982,06/09.0/2024,2000,g 15.5,4.0
# From MPEC 2023-CD7
355P/LINEAR-NEAT,e,11.0469,51.4342,336.3237,3.470098,0.1524725,0.50815653,10.4605,06/09.0/2024,2000,g 15.5,2.0
# From MPEC 2022-F14
356P/WISE,e,9.6402,160.8093,226.1444,4.154263,0.1164027,0.35606217,274.6725,06/09.0/2024,2000,g 14.0,4.0
# From MPC114609
357P/Hill,e,6.3144,44.5797,1.4546,4.455999,0.1047820,0.43613921,230.3672,06/09.0/2024,2000,g 15.5,4.0
# From MPEC 2024-EF7
358P/PANSTARRS,e,11.0653,85.6654,299.5632,3.148972,0.1763806,0.23970740,37.3406,06/09.0/2024,2000,g 18.0,4.0
# From MPC110086
359P/LONEOS,e,10.2635,149.7701,200.2963,4.641313,0.0985696,0.32353697,244.5687,06/09.0/2024,2000,g 13.5,4.0
# From MPC108599
360P/WISE,e,24.1086,2.2125,354.2403,3.697046,0.1386506,0.49914526,343.8132,06/09.0/2024,2000,g 19.5,6.0
# From MPEC 2023-CD7
361P/Spacewatch,e,13.9020,203.2535,219.0638,4.933529,0.0899430,0.43957400,194.7065,06/09.0/2024,2000,g 12.0,4.0
# From MPEC 2017-V13
362P/,e,15.5548,192.4941,53.5362,3.973509,0.1244351,0.27869291,354.8774,06/09.0/2024,2000,g 12.9,2.0
# From MPC114609
363P/Lemmon,e,5.3895,146.6459,340.8633,3.576420,0.1457241,0.51885962,337.0942,06/09.0/2024,2000,g 17.5,4.0
# From MPEC 2023-XP6
364P/PANSTARRS,e,12.1192,46.1476,212.1714,2.887265,0.2008973,0.72171328,78.7139,06/09.0/2024,2000,g 17.0,2.0
# From MPC111775
365P/PANSTARRS,e,9.8497,86.6565,67.4266,3.156439,0.1757551,0.58143283,42.8140,06/09.0/2024,2000,g 17.0,4.0
# From MPC114610
366P/Spacewatch,e,8.8569,70.7232,153.0190,3.498714,0.1506057,0.34835747,324.4616,06/09.0/2024,2000,g 15.0,4.0
# From MPC112395
367P/Catalina,e,8.4597,58.6610,172.7233,3.510355,0.1498571,0.27988563,327.5298,06/09.0/2024,2000,g 17.5,2.0
# From MPC114610
368P/NEAT,e,15.4817,257.8636,118.9613,5.532786,0.0757335,0.62629192,158.5088,06/09.0/2024,2000,g 14.0,4.0
# From MPC114610
369P/Hill,e,10.3225,47.2971,13.1950,4.379704,0.1075318,0.55592088,221.5458,06/09.0/2024,2000,g 15.0,4.0
# From MPEC 2021-F20
370P/NEAT,e,19.4238,55.0814,356.7469,6.437525,0.0603428,0.61551261,132.0645,06/09.0/2024,2000,g 13.0,4.0
# From MPC114610
371P/LINEAR-Skiff,e,17.3850,67.2831,308.5656,4.180460,0.1153103,0.47690485,238.8605,06/09.0/2024,2000,g 16.0,4.0
# From MPEC 2020-K19
372P/McNaught,e,9.5071,27.5514,326.0212,4.510922,0.1028741,0.15174151,211.3757,06/09.0/2024,2000,g 13.5,4.0
# From MPEC 2021-F20
373P/Rinner,e,13.7703,231.9451,221.0627,3.798586,0.1331285,0.39362575,251.1122,06/09.0/2024,2000,g 14.5,4.0
# From MPC114610
374P/Larson,e,10.7648,7.9008,51.5130,4.971025,0.0889273,0.46377497,175.4773,06/09.0/2024,2000,g 14.0,4.0
# From MPEC 2021-F20
375P/Hill,e,17.3667,359.8884,119.3880,5.546739,0.0754480,0.65981582,150.5755,06/09.0/2024,2000,g 16.0,4.0
# From MPEC 2022-K19
376P/LONEOS,e,1.1663,312.8739,285.4100,5.757330,0.0713465,0.51396338,123.3362,06/09.0/2024,2000,g 12.5,4.0
# From MPEC 2022-N37
377P/Scotti,e,9.0248,226.0294,354.8826,6.697441,0.0568644,0.25109565,81.3394,06/09.0/2024,2000,g  9.5,4.0
# From MPEC 2024-D33
378P/McNaught,e,19.1398,93.8254,193.4014,6.293638,0.0624240,0.46512606,83.4590,06/09.0/2024,2000,g 12.0,4.0
# From MPC115889
379P/Spacewatch,e,12.4428,30.5284,184.3157,3.489704,0.1511894,0.34977360,265.7653,06/09.0/2024,2000,g 15.0,4.0
# From MPEC 2023-C45
380P/PANSTARRS,e,8.0165,128.1359,87.9047,4.425866,0.1058539,0.33737115,198.9143,06/09.0/2024,2000,g 12.5,4.0
# From MPEC 2021-J28
381P/LINEAR-Spacewatch,e,28.3595,173.2936,173.8495,7.143466,0.0516227,0.68112523,88.6667,06/09.0/2024,2000,g 17.5,2.0
# From MPEC 2024-EF7
382P/Larson,e,8.2744,171.9727,162.3550,5.948671,0.0679320,0.27106616,63.3715,06/09.0/2024,2000,g  8.0,4.0
# From MPEC 2022-OB6
383P/Christensen,e,12.3207,207.8516,133.7550,3.548072,0.1474740,0.59878254,248.8905,06/09.0/2024,2000,g 18.0,4.0
# From MPEC 2022-OB6
384P/Kowalski,e,7.2833,354.1999,37.7105,2.898302,0.1997509,0.61629185,339.5970,06/09.0/2024,2000,g 19.5,4.0
# From MPEC 2021-F20
385P/Hill,e,16.8275,357.0645,44.4064,4.288750,0.1109706,0.40211852,191.6566,06/09.0/2024,2000,g 13.0,4.0
# From MPEC 2021-L04
386P/PANSTARRS,e,15.2408,134.9174,353.0807,4.050348,0.1209110,0.41709082,167.9843,06/09.0/2024,2000,g 14.5,4.0
# From MPEC 2021-J28
387P/Boattini,e,8.9362,259.2428,162.8285,4.797102,0.0938071,0.73710467,162.8286,06/09.0/2024,2000,g 15.0,4.0
# From MPEC 2021-S45
388P/Gibbs,e,23.8892,37.0298,42.3233,5.240562,0.0821556,0.61929285,146.2584,06/09.0/2024,2000,g 13.0,4.0
# From MPEC 2022-OB6
389P/Siding Spring,e,160.0857,218.8800,249.3798,5.632504,0.0737313,0.70513381,119.6094,06/09.0/2024,2000,g 16.0,4.0
# From MPEC 2024-EF7
390P/Gibbs,e,18.5374,152.2372,232.4899,5.815144,0.0702851,0.70717482,108.1782,06/09.0/2024,2000,g 12.0,4.0
# From MPEC 2021-F20
391P/Kowalski,e,21.2605,124.7870,187.1758,4.688621,0.0970815,0.11875303,220.8093,06/09.0/2024,2000,g  8.0,4.0
# From MPEC 2021-J28
392P/LINEAR,e,4.9312,24.8448,71.9002,6.140886,0.0647676,0.68378383,99.0217,06/09.0/2024,2000,g 14.5,4.0
# From MPEC 2023-T65
393P/Spacewatch-Hill,e,16.7870,36.3934,329.1814,4.797435,0.0937973,0.11979245,157.7853,06/09.0/2024,2000,g 11.0,4.0
# From MPEC 2020-KB7
394P/PANSTARRS,e,8.5294,98.1232,54.4030,4.328282,0.1094538,0.36785275,180.9669,06/09.0/2024,2000,g 16.0,2.4
# From MPEC 2024-C04
395P/Catalina-NEAT,e,3.5817,221.0338,99.9776,7.187051,0.0511538,0.41455760,42.9683,06/09.0/2024,2000,g 10.0,4.0
# From MPEC 2020-KB7
396P/,e,5.4398,136.6229,8.3094,6.800241,0.0555799,0.41646133,97.1028,06/09.0/2024,2000,g 12.0,4.0
# From MPEC 2022-OB6
397P/Lemmon,e,10.9248,8.2242,14.5633,3.831359,0.1314240,0.40499539,190.5362,06/09.0/2024,2000,g 12.0,4.0
# From MPEC 2021-L04
398P/Boattini,e,11.0230,320.1468,127.5084,3.125427,0.1783775,0.58361425,224.6269,06/09.0/2024,2000,g 15.5,4.0
# From MPEC 2023-XP6
399P/PANSTARRS,e,13.3209,207.1293,214.4016,3.793079,0.1334185,0.44744301,148.4530,06/09.0/2024,2000,g 14.0,4.0
# From MPEC 2022-ED3
400P/PANSTARRS,e,10.9291,176.4007,238.8678,3.561931,0.1466141,0.40972205,177.9829,06/09.0/2024,2000,g 15.5,2.8
# From MPEC 2022-K19
401P/McNaught,e,12.8013,359.9109,309.4156,5.777869,0.0709664,0.57868545,116.9423,06/09.0/2024,2000,g 12.5,4.0
# From MPEC 2024-F34
402P/LINEAR,e,30.8321,123.0668,326.8738,7.034811,0.0528233,0.43998542,47.8843,06/09.0/2024,2000,g  8.0,4.0
# From MPEC 2021-J28
403P/Catalina,e,12.3289,277.5745,163.9058,5.430672,0.0778796,0.50429147,105.9658,06/09.0/2024,2000,g 12.0,4.0
# From MPEC 2024-L77
404P/Bressi,e,9.8027,260.0381,169.3260,4.726458,0.0959181,0.12562959,20.9369,06/09.0/2024,2000,g 10.0,4.0
# From MPEC 2021-L04
405P/Lemmon,e,9.3757,112.1902,3.2956,3.604693,0.1440130,0.68989809,181.7636,06/09.0/2024,2000,g 17.5,4.0
